NORAD_CAT_ID,OBJECT_NAME,OBJECT_TYPE,EPOCH,MEAN_MOTION,ECCENTRICITY,INCLINATION,RA_OF_ASC_NODE,ARG_OF_PERICENTER,MEAN_ANOMALY,BSTAR,MEAN_MOTION_DOT,MEAN_MOTION_DDOT,TLE_LINE0,TLE_LINE1,TLE_LINE2,SEMIMAJOR_AXIS,PERIOD,APOGEE,PERIGEE,DECAYED
53971.0,STARLINK-4639,PAYLOAD,2023-01-13 02:41:29,15.08852578,0.0002541,53.2176,353.7081,35.4411,324.6749,0.00015301,2.148e-05,0.0,0 STARLINK-4639,1 53971U 22125H   23013.11214748  .00002148  00000-0  15301-3 0  9992,2 53971  53.2176 353.7081 0002541  35.4411 324.6749 15.08852578 15547,6917.842,95.437,541.465,537.9490000000002,0.0
53971.0,STARLINK-4639,PAYLOAD,2023-01-13 05:52:15,15.08866586,0.0002472,53.2174,353.1137,34.0582,326.0569,0.00033794,5.098e-05,0.0,0 STARLINK-4639,1 53971U 22125H   23013.24461878  .00005098  00000-0  33794-3 0  9997,2 53971  53.2174 353.1137 0002472  34.0582 326.0569 15.08866586 15560,6917.799,95.436,541.374,537.9540000000001,0.0
53971.0,STARLINK-4639,PAYLOAD,2023-01-13 15:24:34,15.0884206,0.0002496,53.2183,351.3298,37.4859,322.6307,-6.7721e-05,-1.366e-05,0.0,0 STARLINK-4639,1 53971U 22125H   23013.64206998 -.00001366  00000-0 -67721-4 0  9995,2 53971  53.2183 351.3298 0002496  37.4859 322.6307 15.08842060 15628,6917.874,95.437,541.466,538.012,0.0
53971.0,STARLINK-4639,PAYLOAD,2023-01-14 02:32:18,15.08817385,0.0002275,53.2181,349.2488,38.1073,322.008,-0.0003043999999999,-5.127e-05,0.0,0 STARLINK-4639,1 53971U 22125H   23014.10576606 -.00005127  00000-0 -30440-3 0  9999,2 53971  53.2181 349.2488 0002275  38.1073 322.0080 15.08817385 15695,6917.95,95.439,541.388,538.241,0.0
53971.0,STARLINK-4639,PAYLOAD,2023-01-14 07:18:27,15.08830754,0.0002323,53.2177,348.3561,41.0748,319.0418,-0.00010159,-1.904e-05,0.0,0 STARLINK-4639,1 53971U 22125H   23014.30448149 -.00001904  00000-0 -10159-3 0  9995,2 53971  53.2177 348.3561 0002323  41.0748 319.0418 15.08830754 15728,6917.909000000001,95.438,541.381,538.1669999999999,0.0
53971.0,STARLINK-4639,PAYLOAD,2023-01-15 07:09:15,15.08828505,0.0001855999999999,53.2184,343.8952,42.5991,317.5145,-8.166199999999999e-05,-1.587e-05,0.0,0 STARLINK-4639,1 53971U 22125H   23015.29809205 -.00001587  00000-0 -81662-4 0  9993,2 53971  53.2184 343.8952 0001856  42.5991 317.5145 15.08828505 15806,6917.916,95.438,541.064,538.497,0.0
53971.0,STARLINK-4639,PAYLOAD,2023-01-15 15:06:10,15.08845761,0.0001969,53.2182,342.41,48.103,312.013,0.00019989,2.895e-05,0.0,0 STARLINK-4639,1 53971U 22125H   23015.62928534  .00002895  00000-0  19989-3 0  9990,2 53971  53.2182 342.4100 0001969  48.1030 312.0130 15.08845761 15925,6917.863,95.437,541.09,538.366,0.0
53971.0,STARLINK-4639,PAYLOAD,2023-01-16 03:49:15,15.08858736,0.0001988,53.2182,340.03,61.5019,298.6174,0.00076995,0.00011993,0.0,0 STARLINK-4639,1 53971U 22125H   23016.15920751  .00011993  00000-0  76995-3 0  9991,2 53971  53.2182 340.0300 0001988  61.5019 298.6174 15.08858736 15932,6917.823,95.436,541.063,538.313,0.0
53971.0,STARLINK-4639,PAYLOAD,2023-01-16 21:18:31,15.08831011,0.000193,53.2175,336.7597,60.2383,299.8801,6.5223e-05,7.499999999999999e-06,0.0,0 STARLINK-4639,1 53971U 22125H   23016.88786077  .00000750  00000-0  65223-4 0  9994,2 53971  53.2175 336.7597 0001930  60.2383 299.8801 15.08831011 16041,6917.908,95.438,541.1080000000001,538.438,0.0
53971.0,STARLINK-4639,PAYLOAD,2023-01-16 22:53:54,15.08828522,0.0001142,53.219,336.4639,72.4184,287.6933,-2.1164e-06,-3.21e-06,0.0,0 STARLINK-4639,1 53971U 22125H   23016.95410013 -.00000321  00000-0 -21164-5 0  9999,2 53971  53.2190 336.4639 0001142  72.4184 287.6933 15.08828522 16124,6917.915,95.438,540.57,538.99,0.0
53971.0,STARLINK-4639,PAYLOAD,2023-01-17 06:50:50,15.08822173,0.0001626999999999,53.2186,334.9744,66.8395,293.2768,-0.00018808,-3.279e-05,0.0,0 STARLINK-4639,1 53971U 22125H   23017.28530580 -.00003279  00000-0 -18808-3 0  9992,2 53971  53.2186 334.9744 0001627  66.8395 293.2768 15.08822173 16101,6917.935,95.439,540.925,538.674,0.0
53971.0,STARLINK-4639,PAYLOAD,2023-01-18 01:55:28,15.08831346,0.0001496,53.2186,331.4056,85.1308,274.9855,0.0001325,1.821e-05,0.0,0 STARLINK-4639,1 53971U 22125H   23018.08019010  .00001821  00000-0  13250-3 0  9996,2 53971  53.2186 331.4056 0001496  85.1308 274.9855 15.08831346 16296,6917.906999999999,95.438,540.807,538.737,0.0
53971.0,STARLINK-4639,PAYLOAD,2023-01-18 08:17:00,15.08862143,0.0001520999999999,53.218,330.217,88.0717,272.0449,0.0014903,0.00023524,0.0,0 STARLINK-4639,1 53971U 22125H   23018.34514851  .00023524  00000-0  14903-2 0  9997,2 53971  53.2180 330.2170 0001521  88.0717 272.0449 15.08862143 16331,6917.813,95.436,540.73,538.626,0.0
53971.0,STARLINK-4639,PAYLOAD,2023-01-18 21:00:05,15.08864342,0.0001496,53.2182,327.8388,93.1984,266.9179,0.0010189,0.00015976,0.0,0 STARLINK-4639,1 53971U 22125H   23018.87506699  .00015976  00000-0  10189-2 0  9990,2 53971  53.2182 327.8388 0001496  93.1984 266.9179 15.08864342 16346,6917.806,95.436,540.706,538.636,0.0
53971.0,STARLINK-4639,PAYLOAD,2023-01-19 03:21:37,15.08887869,0.0001337,53.2182,326.6497,92.2799,267.8346,0.0023419,0.00037229,0.0,0 STARLINK-4639,1 53971U 22125H   23019.14001997  .00037229  00000-0  23419-2 0  9997,2 53971  53.2182 326.6497 0001337  92.2799 267.8346 15.08887869 16459,6917.734,95.435,540.524,538.674,0.0
53971.0,STARLINK-4639,PAYLOAD,2023-01-19 06:32:23,15.08894643,0.0001339,53.2183,326.0548,91.9349,268.1797,0.0022769,0.0003618999999999,0.0,0 STARLINK-4639,1 53971U 22125H   23019.27249554  .00036190  00000-0  22769-2 0  9997,2 53971  53.2183 326.0548 0001339  91.9349 268.1797 15.08894643 16407,6917.713000000001,95.434,540.505,538.6519999999999,0.0
53971.0,STARLINK-4639,PAYLOAD,2023-01-19 16:04:42,15.08835522,0.0001115,53.2183,324.2706,118.7066,241.4038,0.00046352,7.096e-05,0.0,0 STARLINK-4639,1 53971U 22125H   23019.66994138  .00007096  00000-0  46352-3 0  9993,2 53971  53.2183 324.2706 0001115 118.7066 241.4038 15.08835522 16536,6917.894,95.438,540.53,538.988,0.0
53971.0,STARLINK-4639,PAYLOAD,2023-01-20 03:12:25,15.08830206,0.000123,53.2184,322.1899,124.8549,235.2559,0.0013777999999999,0.00021702,0.0,0 STARLINK-4639,1 53971U 22125H   23020.13362811  .00021702  00000-0  13778-2 0  9999,2 53971  53.2184 322.1899 0001230 124.8549 235.2559 15.08830206 16600,6917.91,95.438,540.626,538.924,0.0
53971.0,STARLINK-4639,PAYLOAD,2023-01-21 03:03:12,15.0884639,0.0001266,53.2178,317.7301,108.7114,251.4016,0.00040986,6.242e-05,0.0,0 STARLINK-4639,1 53971U 22125H   23021.12722915  .00006242  00000-0  40986-3 0  9998,2 53971  53.2178 317.7301 0001266 108.7114 251.4016 15.08846390 16754,6917.861,95.437,540.602,538.85,0.0
53971.0,STARLINK-4639,PAYLOAD,2023-01-22 04:29:22,15.08862982,0.0001329,53.2187,312.9712,96.4177,263.6967,0.00072096,0.00011212,0.0,0 STARLINK-4639,1 53971U 22125H   23022.18706345  .00011212  00000-0  72096-3 0  9994,2 53971  53.2187 312.9712 0001329  96.4177 263.6967 15.08862982 16912,6917.81,95.436,540.595,538.756,0.0
53971.0,STARLINK-4639,PAYLOAD,2023-01-22 12:26:18,15.08835257,0.0002646,53.2172,311.4833,79.2597,280.8693,-0.00020986,-3.627e-05,0.0,0 STARLINK-4639,1 53971U 22125H   23022.51827170 -.00003627  00000-0 -20986-3 0  9995,2 53971  53.2172 311.4833 0002646  79.2597 280.8693 15.08835257 16969,6917.895,95.438,541.59,537.929,0.0
53971.0,STARLINK-4639,PAYLOAD,2023-01-23 01:09:23,15.08849507,0.0002351,53.2172,309.1068,79.0175,281.1082,0.00041763,6.366e-05,0.0,0 STARLINK-4639,1 53971U 22125H   23023.04819073  .00006366  00000-0  41763-3 0  9994,2 53971  53.2172 309.1068 0002351  79.0175 281.1082 15.08849507 17045,6917.851,95.437,541.3430000000001,538.09,0.0
53971.0,STARLINK-4639,PAYLOAD,2023-01-23 04:20:10,15.08833306,9.64e-05,53.2179,308.5098,79.9118,280.1983,7.6554e-05,9.31e-06,0.0,0 STARLINK-4639,1 53971U 22125H   23023.18067221  .00000931  00000-0  76554-4 0  9998,2 53971  53.2179 308.5098 0000964  79.9118 280.1983 15.08833306 17063,6917.901,95.438,540.433,539.099,0.0
53971.0,STARLINK-4639,PAYLOAD,2023-01-24 01:00:11,15.08847113,0.0001675,53.218,304.6469,65.6441,294.4726,0.00066588,0.00010327,0.0,0 STARLINK-4639,1 53971U 22125H   23024.04179456  .00010327  00000-0  66588-3 0  9993,2 53971  53.2180 304.6469 0001675  65.6441 294.4726 15.08847113 17193,6917.859,95.437,540.882,538.565,0.0
53971.0,STARLINK-4639,PAYLOAD,2023-01-25 00:50:57,15.08845824,0.0001187,53.2175,300.1842,96.3471,263.7656,0.00031574,4.741e-05,0.0,0 STARLINK-4639,1 53971U 22125H   23025.03539003  .00004741  00000-0  31574-3 0  9991,2 53971  53.2175 300.1842 0001187  96.3471 263.7656 15.08845824 17340,6917.863,95.437,540.549,538.906,0.0
53971.0,STARLINK-4639,PAYLOAD,2023-01-25 04:01:43,15.08852,0.0001147999999999,53.2177,299.5885,100.0634,260.0487,0.00048733,7.479e-05,0.0,0 STARLINK-4639,1 53971U 22125H   23025.16786791  .00007479  00000-0  48733-3 0  9999,2 53971  53.2177 299.5885 0001148 100.0634 260.0487 15.08852000 17291,6917.844,95.437,540.503,538.915,0.0
53971.0,STARLINK-4639,PAYLOAD,2023-01-26 02:17:07,15.08851895,0.0001147,53.2178,295.4279,72.3348,287.7769,0.00076211,0.00011866,0.0,0 STARLINK-4639,1 53971U 22125H   23026.09522909  .00011866  00000-0  76211-3 0  9998,2 53971  53.2178 295.4279 0001147  72.3348 287.7769 15.08851895 17500,6917.844,95.437,540.503,538.9159999999999,0.0
53971.0,STARLINK-4639,PAYLOAD,2023-01-27 02:07:55,15.08850476,0.0001118,53.2178,290.9689,96.2327,263.8792,0.00080372,0.0001252999999999,0.0,0 STARLINK-4639,1 53971U 22125H   23027.08883109  .00012530  00000-0  80372-3 0  9992,2 53971  53.2178 290.9689 0001118  96.2327 263.8792 15.08850476 17656,6917.848000000001,95.437,540.487,538.94,0.0
53971.0,STARLINK-4639,PAYLOAD,2023-01-27 21:12:33,15.08834055,0.0001229,53.2173,287.3992,86.7812,273.3321,0.00059452,9.185e-05,0.0,0 STARLINK-4639,1 53971U 22125H   23027.88371723  .00009185  00000-0  59452-3 0  9991,2 53971  53.2173 287.3992 0001229  86.7812 273.3321 15.08834055 17709,6917.899,95.438,540.614,538.913,0.0
